[{"OBJECT_NAME":"JY1SAT (JO-97)","OBJECT_ID":"2018-099AX","EPOCH":"2026-03-09T16:28:19.890048","MEAN_MOTION":15.30302629,"ECCENTRICITY":0.00047232,"INCLINATION":97.4249,"RA_OF_ASC_NODE":131.3625,"ARG_OF_PERICENTER":256.6795,"MEAN_ANOMALY":103.3919,"EPHEMERIS_TYPE":0,"CLASSIFICATION_TYPE":"U","NORAD_CAT_ID":43803,"ELEMENT_SET_NO":999,"REV_AT_EPOCH":39839,"BSTAR":0.00060804308,"MEAN_MOTION_DOT":0.00017774,"MEAN_MOTION_DDOT":0},{"OBJECT_NAME":"STARLINK-32025","OBJECT_ID":"2024-120D","EPOCH":"2026-03-09T23:25:57.087552","MEAN_MOTION":15.30194583,"ECCENTRICITY":6.127e-5,"INCLINATION":53.1603,"RA_OF_ASC_NODE":318.3368,"ARG_OF_PERICENTER":55.7988,"MEAN_ANOMALY":304.3071,"EPHEMERIS_TYPE":0,"CLASSIFICATION_TYPE":"U","NORAD_CAT_ID":60138,"ELEMENT_SET_NO":999,"REV_AT_EPOCH":9642,"BSTAR":3.54704e-7,"MEAN_MOTION_DOT":-3.48e-6,"MEAN_MOTION_DDOT":0}]
